POLYITAN-1              
1 40042U 14033AJ  26196.04073855  .00011373  00000+0  34568-3 0  9990
2 40042  98.0932 224.9562 0007940  64.6154 295.5908 15.34216227657862
TIGRISAT                
1 40043U 14033AK  26195.94032712  .00000751  00000+0  92158-4 0  9994
2 40043  97.7863 345.3223 0048652 345.1915  14.7872 14.85249164649741
AEROCUBE 6A             
1 40045U 14033AM  26196.00724742  .00003069  00000+0  25935-3 0  9998
2 40045  97.7245   2.6663 0036337 281.6131  78.1013 14.98341850650785
AEROCUBE 6B             
1 40046U 14033AN  26195.71563576  .00002588  00000+0  21110-3 0  9998
2 40046  97.7198   2.2244 0038037 271.7772  87.9094 14.99795542650884
CANX-4                  
1 40055U 14034C   26196.11735288  .00000420  00000+0  61209-4 0  9992
2 40055  98.3083  72.4512 0011425 283.1173  76.8763 14.81311066648664
CANX-5                  
1 40056U 14034D   26196.11545985  .00000422  00000+0  61423-4 0  9996
2 40056  98.3086  72.4945 0011420 283.3463  76.6474 14.81328420639475
UKUBE-1                 
1 40074U 14037F   26195.99699083  .00004047  00000+0  22759-3 0  9998
2 40074  98.4241 202.2001 0003288  88.3467 271.8138 15.13948269652763
BRITE-PL2 (HEWELIUSZ)   
1 40119U 14049B   26195.88834414  .00000534  00000+0  54623-4 0  9991
2 40119  97.9120 308.1065 0014364  23.2614 336.9253 14.94686767645581
AEROCUBE 5C             
1 40965U 15058B   26196.13075537  .00001722  00000+0  16001-3 0  9990
2 40965  64.7655 175.6491 0132331  52.4584 308.8465 14.91575912369829
AEROCUBE 7              
1 40966U 15058C   26196.18044997  .00002744  00000+0  22457-3 0  9999
2 40966  64.7612 157.1214 0122053  50.7559 310.4311 14.95913679370140
FOX-1A (AO-85)          
1 40967U 15058D   26196.12035816  .00001645  00000+0  15548-3 0  9996
2 40967  64.7725 192.1668 0132354  45.8405 315.3496 14.91088023117732
SINOD-D 1               
1 40968U 15058E   26196.08824156  .00002792  00000+0  22774-3 0  9998
2 40968  64.7734 171.5240 0121026  42.1982 318.8369 14.96087409120838
SNAP-3 ALICE            
1 40970U 15058G   26196.18602179  .00096058  00000+0  86785-3 0  9991
2 40970  64.7493   6.6216 0024649 348.2104  11.8464 15.67207542121268
LMRST-SAT               
1 40971U 15058H   26196.08284093  .00001576  00000+0  15058-3 0  9998
2 40971  64.7732 188.6747 0133886  47.8544 313.3850 14.90702938117717
SNAP-3 EDDIE            
1 40972U 15058J   26195.83481691  .00098503  00000+0  84166-3 0  9996
2 40972  64.7403 358.3612 0025398 350.9380   9.1307 15.68535960123353
PROPCUBE 3              
1 40973U 15058K   26196.11651699  .00002341  00000+0  19980-3 0  9993
2 40973  64.7670 165.2625 0125765  49.0307 312.1606 14.94415581118978
BISONSAT                
1 40974U 15058L   26196.12476646  .00008237  00000+0  39068-3 0  9991
2 40974  64.7585  83.2653 0082113  35.8976 324.7626 15.16931314119859
SNAP-3 JIMI             
1 40975U 15058M   26196.14536119  .00004277  00000+0  29464-3 0  9995
2 40975  64.7648 131.2935 0107855  44.3375 316.6317 15.02608901118423
PROPCUBE 1 (FLORA)      
1 40976U 15058N   26196.13055463  .00001241  00000+0  12673-3 0  9995
2 40976  64.7718 208.6238 0132473  50.1116 311.1553 14.89327567120424
SINOD-D 3               
1 40977U 15058P   26196.15266770  .00002192  00000+0  19134-3 0  9998
2 40977  64.7702 188.4794 0121034  47.1563 313.9642 14.94173339118937
RAVAN                   
1 41849U 16067B   26195.69550271  .00035769  00000+0  48790-3 0  9994
2 41849  97.9847  88.5008 0002158 219.1312 140.9786 15.57429417531971
CELTEE 1                
1 41850U 16067C   26196.05690760  .00002855  00000+0  13646-3 0  9997
2 41850  98.0635  64.5246 0002356 110.5351 249.6135 15.19940045530118
OPTICUBE 04             
1 41851U 16067D   26196.11509138  .00000987  00000+0  65385-4 0  9995
2 41851  98.0673  49.8540 0016177  28.0785 332.1312 15.09771889529383
AEROCUBE 8D             
1 41852U 16067E   26196.11514549  .00004159  00000+0  17112-3 0  9997
2 41852  98.0644  68.4134 0004567  56.6557 303.5115 15.24769177530325
AEROCUBE 8C             
1 41853U 16067F   26195.61059529  .00004132  00000+0  16881-3 0  9997
2 41853  98.0521  65.0631 0004333 343.7365  16.3731 15.25019050530246
CORVUS BC2              
1 42846U 17042X   26195.96097868  .00001217  00000+0  86403-4 0  9999
2 42846  97.4091 356.2377 0013477  23.8771 336.3079 15.06455929491246
CORVUS BC1              
1 42847U 17042Y   26195.88611574  .00001235  00000+0  87249-4 0  9996
2 42847  97.4120 356.9976 0011698   1.3518 358.7739 15.06618518491263
MAKERSAT 0              
1 43016U 17073D   26195.60318523  .00011617  00000+0  30730-3 0  9994
2 43016  97.4584  78.3470 0105407 174.3522 185.8937 15.32992920470669
SIRION PATHFINDER-2     
1 43759U 18099B   26196.06036311  .00002124  00000+0  11790-3 0  9998
2 43759  97.4238 244.4570 0008448 191.9909 168.1124 15.14776742416841
CORVUS BC4              
1 43767U 18099K   26196.10493764  .00001949  00000+0  11492-3 0  9994
2 43767  97.4050 238.2694 0006506 261.3087  98.7407 15.12702021416627
