OBJECT_NAME,OBJECT_ID,EPOCH,MEAN_MOTION,ECCENTRICITY,INCLINATION,RA_OF_ASC_NODE,ARG_OF_PERICENTER,MEAN_ANOMALY,EPHEMERIS_TYPE,CLASSIFICATION_TYPE,NORAD_CAT_ID,ELEMENT_SET_NO,REV_AT_EPOCH,BSTAR,MEAN_MOTION_DOT,MEAN_MOTION_DDOT
POLYITAN-1,2014-033AJ,2026-07-15T00:58:39.810720,15.34216227,.000794,98.0932,224.9562,64.6154,295.5908,0,U,40042,999,65786,.34568E-3,.11373E-3,0
TIGRISAT,2014-033AK,2026-07-14T22:34:04.263168,14.85249164,.0048652,97.7863,345.3223,345.1915,14.7872,0,U,40043,999,64974,.92158E-4,.751E-5,0
AEROCUBE 6A,2014-033AM,2026-07-15T00:10:26.177088,14.98341850,.0036337,97.7245,2.6663,281.6131,78.1013,0,U,40045,999,65078,.25935E-3,.3069E-4,0
AEROCUBE 6B,2014-033AN,2026-07-14T17:10:30.929664,14.99795542,.00380379,97.7198,2.2244,271.7772,87.9094,0,U,40046,999,65088,.2110975E-3,.2588E-4,0
CANX-4,2014-034C,2026-07-15T02:48:59.288832,14.81311066,.0011425,98.3083,72.4512,283.1173,76.8763,0,U,40055,999,64866,.61209E-4,.42E-5,0
CANX-5,2014-034D,2026-07-15T02:46:15.731040,14.81328420,.001142,98.3086,72.4945,283.3463,76.6474,0,U,40056,999,63947,.61423E-4,.422E-5,0
UKUBE-1,2014-037F,2026-07-14T23:55:40.007712,15.13948269,.0003288,98.4241,202.2001,88.3467,271.8138,0,U,40074,999,65276,.22759E-3,.4047E-4,0
BRITE-PL2 (HEWELIUSZ),2014-049B,2026-07-14T21:19:12.933696,14.94686767,.0014364,97.9120,308.1065,23.2614,336.9253,0,U,40119,999,64558,.54623E-4,.534E-5,0
AEROCUBE 5C,2015-058B,2026-07-15T03:08:17.263968,14.91575912,.0132331,64.7655,175.6491,52.4584,308.8465,0,U,40965,999,36982,.16001E-3,.1722E-4,0
AEROCUBE 7,2015-058C,2026-07-15T04:19:50.877408,14.95913679,.0122053,64.7612,157.1214,50.7559,310.4311,0,U,40966,999,37014,.22457E-3,.2744E-4,0
FOX-1A (AO-85),2015-058D,2026-07-15T02:53:18.945024,14.91088023,.0132354,64.7725,192.1668,45.8405,315.3496,0,U,40967,999,11773,.15548E-3,.1645E-4,0
SINOD-D 1,2015-058E,2026-07-15T02:07:04.070784,14.96087409,.0121026,64.7734,171.5240,42.1982,318.8369,0,U,40968,999,12083,.22774E-3,.2792E-4,0
SNAP-3 ALICE,2015-058G,2026-07-15T04:27:52.282656,15.67207542,.0024649,64.7493,6.6216,348.2104,11.8464,0,U,40970,999,12126,.86785E-3,.96058E-3,0
LMRST-SAT,2015-058H,2026-07-15T01:59:17.456352,14.90702938,.0133886,64.7732,188.6747,47.8544,313.3850,0,U,40971,999,11771,.15058E-3,.1576E-4,0
SNAP-3 EDDIE,2015-058J,2026-07-14T20:02:08.181024,15.68535960,.00253982,64.7403,358.3612,350.9380,9.1307,0,U,40972,999,12335,.84166289E-3,.98503E-3,0
PROPCUBE 3,2015-058K,2026-07-15T02:47:47.067936,14.94415581,.0125765,64.7670,165.2625,49.0307,312.1606,0,U,40973,999,11897,.1998E-3,.2341E-4,0
BISONSAT,2015-058L,2026-07-15T02:59:39.822144,15.16931314,.0082113,64.7585,83.2653,35.8976,324.7626,0,U,40974,999,11985,.39068E-3,.8237E-4,0
SNAP-3 JIMI,2015-058M,2026-07-15T03:29:19.206816,15.02608901,.0107855,64.7648,131.2935,44.3375,316.6317,0,U,40975,999,11842,.29464E-3,.4277E-4,0
PROPCUBE 1 (FLORA),2015-058N,2026-07-15T03:07:59.920032,14.89327567,.0132473,64.7718,208.6238,50.1116,311.1553,0,U,40976,999,12042,.12673E-3,.1241E-4,0
SINOD-D 3,2015-058P,2026-07-15T03:39:50.489280,14.94173339,.0121034,64.7702,188.4794,47.1563,313.9642,0,U,40977,999,11893,.19134E-3,.2192E-4,0
RAVAN,2016-067B,2026-07-14T16:41:31.434144,15.57429417,.00021589,97.9847,88.5008,219.1312,140.9786,0,U,41849,999,53197,.48790262E-3,.35769E-3,0
CELTEE 1,2016-067C,2026-07-15T01:21:56.816640,15.19940045,.0002356,98.0635,64.5246,110.5351,249.6135,0,U,41850,999,53011,.13646E-3,.2855E-4,0
OPTICUBE 04,2016-067D,2026-07-15T02:45:43.895232,15.09771889,.0016177,98.0673,49.8540,28.0785,332.1312,0,U,41851,999,52938,.65385E-4,.987E-5,0
AEROCUBE 8D,2016-067E,2026-07-15T02:45:48.570336,15.24769177,.0004567,98.0644,68.4134,56.6557,303.5115,0,U,41852,999,53032,.17112E-3,.4159E-4,0
AEROCUBE 8C,2016-067F,2026-07-14T14:39:15.433056,15.25019050,.0004333,98.0521,65.0631,343.7365,16.3731,0,U,41853,999,53024,.16881E-3,.4132E-4,0
CORVUS BC2,2017-042X,2026-07-14T23:03:48.557952,15.06455929,.0013477,97.4091,356.2377,23.8771,336.3079,0,U,42846,999,49124,.86403E-4,.1217E-4,0
CORVUS BC1,2017-042Y,2026-07-14T21:16:00.399936,15.06618518,.0011698,97.4120,356.9976,1.3518,358.7739,0,U,42847,999,49126,.87249E-4,.1235E-4,0
MAKERSAT 0,2017-073D,2026-07-14T14:28:35.203872,15.32992920,.0105407,97.4584,78.3470,174.3522,185.8937,0,U,43016,999,47066,.3073E-3,.11617E-3,0
SIRION PATHFINDER-2,2018-099B,2026-07-15T01:26:55.372704,15.14776742,.0008448,97.4238,244.4570,191.9909,168.1124,0,U,43759,999,41684,.1179E-3,.2124E-4,0
CORVUS BC4,2018-099K,2026-07-15T02:31:06.612096,15.12702021,.0006506,97.4050,238.2694,261.3087,98.7407,0,U,43767,999,41662,.11492E-3,.1949E-4,0
